SL-14 R/B               
1 16792U 86046B   26049.20689526  .00000452  00000+0  49288-4 0  9993
2 16792  82.4798  98.5952 0021619 293.8264  66.0685 14.85570782123516
SL-14 R/B               
1 16882U 86055B   26049.26278382  .00000505  00000+0  55352-4 0  9991
2 16882  82.5231 144.9295 0019812  40.2843 339.7395 14.85622463116484
AJISAI (EGS)            
1 16908U 86061A   26049.27369720 -.00000091  00000+0  42231-4 0  9998
2 16908  50.0083 153.0521 0011233 236.9598 158.6810 12.44515330465586
COSMOS 1812             
1 17295U 87003A   26049.25642364  .00409773  71893-4  72766-3 0  9998
2 17295  82.4746 217.7919 0003261 299.9441  60.1514 16.01839942141357
SL-14 R/B               
1 17567U 87024B   26049.24740906  .00000455  00000+0  49108-4 0  9999
2 17567  82.5274 111.0391 0017327 329.4389  30.5817 14.86113081 85246
COSMOS 1833             
1 17589U 87027A   26049.25157392 -.00000053  00000+0 -26956-5 0  9991
2 17589  70.9229   6.8688 0024865 241.0442 118.8186 14.13057373  7575
SL-16 R/B               
1 17590U 87027B   26049.21097157  .00000238  00000+0  14157-3 0  9992
2 17590  71.0041 317.5416 0004519 177.5688 182.5459 14.17163970 12584
SL-14 R/B               
1 17912U 87038B   26049.23236124  .00000476  00000+0  52391-4 0  9990
2 17912  82.5035 315.1344 0018044 226.0033 133.9697 14.85350483 76348
COSMOS 1844             
1 17973U 87041A   26049.23664426  .00000314  00000+0  18808-3 0  9996
2 17973  70.8981  75.2084 0029048  48.8941 311.4682 14.14549435   831
SL-14 R/B               
1 18153U 87055B   26049.28007196  .00000566  00000+0  62288-4 0  9993
2 18153  82.5012   7.3200 0022304  78.5494 281.8225 14.85604029 67053
COSMOS 1867             
1 18187U 87060A   26049.22932039 -.00000031  00000+0  25872-4 0  9999
2 18187  65.0124   1.2011 0014196 277.5607  82.3864 14.31499801 17150
SL-14 R/B               
1 18749U 88001B   26049.00457793  .00000495  00000+0  54531-4 0  9991
2 18749  82.5117 213.8735 0016861 306.4096  53.5565 14.85502304 39108
