CCSDS_OMM_VERS = 2.0
CREATION_DATE  = 
ORIGINATOR     = 

OBJECT_NAME    = SL-14 R/B
OBJECT_ID      = 1986-046B
CENTER_NAME    = EARTH
REF_FRAME      = TEME
TIME_SYSTEM    = UTC
MEAN_ELEMENT_THEORY = SGP/SGP4

EPOCH          = 2026-02-18T04:57:55.750464
MEAN_MOTION    = 14.85570782
ECCENTRICITY   = .0021619
INCLINATION    = 82.4798
RA_OF_ASC_NODE = 98.5952
ARG_OF_PERICENTER = 293.8264
MEAN_ANOMALY   = 66.0685

EPHEMERIS_TYPE = 0
CLASSIFICATION_TYPE = U
NORAD_CAT_ID   = 16792
ELEMENT_SET_NO = 999
REV_AT_EPOCH   = 12351
BSTAR          = .49287752E-4
MEAN_MOTION_DOT = .452E-5
MEAN_MOTION_DDOT = 0

CCSDS_OMM_VERS = 2.0
CREATION_DATE  = 
ORIGINATOR     = 

OBJECT_NAME    = SL-14 R/B
OBJECT_ID      = 1986-055B
CENTER_NAME    = EARTH
REF_FRAME      = TEME
TIME_SYSTEM    = UTC
MEAN_ELEMENT_THEORY = SGP/SGP4

EPOCH          = 2026-02-18T06:18:24.522048
MEAN_MOTION    = 14.85622463
ECCENTRICITY   = .0019812
INCLINATION    = 82.5231
RA_OF_ASC_NODE = 144.9295
ARG_OF_PERICENTER = 40.2843
MEAN_ANOMALY   = 339.7395

EPHEMERIS_TYPE = 0
CLASSIFICATION_TYPE = U
NORAD_CAT_ID   = 16882
ELEMENT_SET_NO = 999
REV_AT_EPOCH   = 11648
BSTAR          = .55351564E-4
MEAN_MOTION_DOT = .505E-5
MEAN_MOTION_DDOT = 0

CCSDS_OMM_VERS = 2.0
CREATION_DATE  = 
ORIGINATOR     = 

OBJECT_NAME    = AJISAI (EGS)
OBJECT_ID      = 1986-061A
CENTER_NAME    = EARTH
REF_FRAME      = TEME
TIME_SYSTEM    = UTC
MEAN_ELEMENT_THEORY = SGP/SGP4

EPOCH          = 2026-02-18T06:34:07.438080
MEAN_MOTION    = 12.44515330
ECCENTRICITY   = .00112334
INCLINATION    = 50.0083
RA_OF_ASC_NODE = 153.0521
ARG_OF_PERICENTER = 236.9598
MEAN_ANOMALY   = 158.6810

EPHEMERIS_TYPE = 0
CLASSIFICATION_TYPE = U
NORAD_CAT_ID   = 16908
ELEMENT_SET_NO = 999
REV_AT_EPOCH   = 46558
BSTAR          = .4223057E-4
MEAN_MOTION_DOT = -.91E-6
MEAN_MOTION_DDOT = 0

CCSDS_OMM_VERS = 2.0
CREATION_DATE  = 
ORIGINATOR     = 

OBJECT_NAME    = COSMOS 1812
OBJECT_ID      = 1987-003A
CENTER_NAME    = EARTH
REF_FRAME      = TEME
TIME_SYSTEM    = UTC
MEAN_ELEMENT_THEORY = SGP/SGP4

EPOCH          = 2026-02-18T06:09:15.002496
MEAN_MOTION    = 16.01839942
ECCENTRICITY   = .00032612
INCLINATION    = 82.4746
RA_OF_ASC_NODE = 217.7919
ARG_OF_PERICENTER = 299.9441
MEAN_ANOMALY   = 60.1514

EPHEMERIS_TYPE = 0
CLASSIFICATION_TYPE = U
NORAD_CAT_ID   = 17295
ELEMENT_SET_NO = 999
REV_AT_EPOCH   = 14135
BSTAR          = .7276598E-3
MEAN_MOTION_DOT = .409773E-2
MEAN_MOTION_DDOT = .71893258E-4

CCSDS_OMM_VERS = 2.0
CREATION_DATE  = 
ORIGINATOR     = 

OBJECT_NAME    = SL-14 R/B
OBJECT_ID      = 1987-024B
CENTER_NAME    = EARTH
REF_FRAME      = TEME
TIME_SYSTEM    = UTC
MEAN_ELEMENT_THEORY = SGP/SGP4

EPOCH          = 2026-02-18T05:56:16.142784
MEAN_MOTION    = 14.86113081
ECCENTRICITY   = .00173273
INCLINATION    = 82.5274
RA_OF_ASC_NODE = 111.0391
ARG_OF_PERICENTER = 329.4389
MEAN_ANOMALY   = 30.5817

EPHEMERIS_TYPE = 0
CLASSIFICATION_TYPE = U
NORAD_CAT_ID   = 17567
ELEMENT_SET_NO = 999
REV_AT_EPOCH   = 8524
BSTAR          = .49107971E-4
MEAN_MOTION_DOT = .455E-5
MEAN_MOTION_DDOT = 0

CCSDS_OMM_VERS = 2.0
CREATION_DATE  = 
ORIGINATOR     = 

OBJECT_NAME    = COSMOS 1833
OBJECT_ID      = 1987-027A
CENTER_NAME    = EARTH
REF_FRAME      = TEME
TIME_SYSTEM    = UTC
MEAN_ELEMENT_THEORY = SGP/SGP4

EPOCH          = 2026-02-18T06:02:15.986688
MEAN_MOTION    = 14.13057373
ECCENTRICITY   = .00248655
INCLINATION    = 70.9229
RA_OF_ASC_NODE = 6.8688
ARG_OF_PERICENTER = 241.0442
MEAN_ANOMALY   = 118.8186

EPHEMERIS_TYPE = 0
CLASSIFICATION_TYPE = U
NORAD_CAT_ID   = 17589
ELEMENT_SET_NO = 999
REV_AT_EPOCH   = 757
BSTAR          = -.2695646E-5
MEAN_MOTION_DOT = -.53E-6
MEAN_MOTION_DDOT = 0

CCSDS_OMM_VERS = 2.0
CREATION_DATE  = 
ORIGINATOR     = 

OBJECT_NAME    = SL-16 R/B
OBJECT_ID      = 1987-027B
CENTER_NAME    = EARTH
REF_FRAME      = TEME
TIME_SYSTEM    = UTC
MEAN_ELEMENT_THEORY = SGP/SGP4

EPOCH          = 2026-02-18T05:03:47.943648
MEAN_MOTION    = 14.17163970
ECCENTRICITY   = .00045194
INCLINATION    = 71.0041
RA_OF_ASC_NODE = 317.5416
ARG_OF_PERICENTER = 177.5688
MEAN_ANOMALY   = 182.5459

EPHEMERIS_TYPE = 0
CLASSIFICATION_TYPE = U
NORAD_CAT_ID   = 17590
ELEMENT_SET_NO = 999
REV_AT_EPOCH   = 1258
BSTAR          = .14157199E-3
MEAN_MOTION_DOT = .238E-5
MEAN_MOTION_DDOT = 0

CCSDS_OMM_VERS = 2.0
CREATION_DATE  = 
ORIGINATOR     = 

OBJECT_NAME    = SL-14 R/B
OBJECT_ID      = 1987-038B
CENTER_NAME    = EARTH
REF_FRAME      = TEME
TIME_SYSTEM    = UTC
MEAN_ELEMENT_THEORY = SGP/SGP4

EPOCH          = 2026-02-18T05:34:36.011136
MEAN_MOTION    = 14.85350483
ECCENTRICITY   = .00180441
INCLINATION    = 82.5035
RA_OF_ASC_NODE = 315.1344
ARG_OF_PERICENTER = 226.0033
MEAN_ANOMALY   = 133.9697

EPHEMERIS_TYPE = 0
CLASSIFICATION_TYPE = U
NORAD_CAT_ID   = 17912
ELEMENT_SET_NO = 999
REV_AT_EPOCH   = 7634
BSTAR          = .52391106E-4
MEAN_MOTION_DOT = .476E-5
MEAN_MOTION_DDOT = 0

CCSDS_OMM_VERS = 2.0
CREATION_DATE  = 
ORIGINATOR     = 

OBJECT_NAME    = COSMOS 1844
OBJECT_ID      = 1987-041A
CENTER_NAME    = EARTH
REF_FRAME      = TEME
TIME_SYSTEM    = UTC
MEAN_ELEMENT_THEORY = SGP/SGP4

EPOCH          = 2026-02-18T05:40:46.064064
MEAN_MOTION    = 14.14549435
ECCENTRICITY   = .00290486
INCLINATION    = 70.8981
RA_OF_ASC_NODE = 75.2084
ARG_OF_PERICENTER = 48.8941
MEAN_ANOMALY   = 311.4682

EPHEMERIS_TYPE = 0
CLASSIFICATION_TYPE = U
NORAD_CAT_ID   = 17973
ELEMENT_SET_NO = 999
REV_AT_EPOCH   = 83
BSTAR          = .18808378E-3
MEAN_MOTION_DOT = .314E-5
MEAN_MOTION_DDOT = 0

CCSDS_OMM_VERS = 2.0
CREATION_DATE  = 
ORIGINATOR     = 

OBJECT_NAME    = SL-14 R/B
OBJECT_ID      = 1987-055B
CENTER_NAME    = EARTH
REF_FRAME      = TEME
TIME_SYSTEM    = UTC
MEAN_ELEMENT_THEORY = SGP/SGP4

EPOCH          = 2026-02-18T06:43:18.217344
MEAN_MOTION    = 14.85604029
ECCENTRICITY   = .0022304
INCLINATION    = 82.5012
RA_OF_ASC_NODE = 7.3200
ARG_OF_PERICENTER = 78.5494
MEAN_ANOMALY   = 281.8225

EPHEMERIS_TYPE = 0
CLASSIFICATION_TYPE = U
NORAD_CAT_ID   = 18153
ELEMENT_SET_NO = 999
REV_AT_EPOCH   = 6705
BSTAR          = .62288011E-4
MEAN_MOTION_DOT = .566E-5
MEAN_MOTION_DDOT = 0

CCSDS_OMM_VERS = 2.0
CREATION_DATE  = 
ORIGINATOR     = 

OBJECT_NAME    = COSMOS 1867
OBJECT_ID      = 1987-060A
CENTER_NAME    = EARTH
REF_FRAME      = TEME
TIME_SYSTEM    = UTC
MEAN_ELEMENT_THEORY = SGP/SGP4

EPOCH          = 2026-02-18T05:30:13.281696
MEAN_MOTION    = 14.31499801
ECCENTRICITY   = .00141962
INCLINATION    = 65.0124
RA_OF_ASC_NODE = 1.2011
ARG_OF_PERICENTER = 277.5607
MEAN_ANOMALY   = 82.3864

EPHEMERIS_TYPE = 0
CLASSIFICATION_TYPE = U
NORAD_CAT_ID   = 18187
ELEMENT_SET_NO = 999
REV_AT_EPOCH   = 1715
BSTAR          = .25872137E-4
MEAN_MOTION_DOT = -.31E-6
MEAN_MOTION_DDOT = 0

CCSDS_OMM_VERS = 2.0
CREATION_DATE  = 
ORIGINATOR     = 

OBJECT_NAME    = SL-14 R/B
OBJECT_ID      = 1988-001B
CENTER_NAME    = EARTH
REF_FRAME      = TEME
TIME_SYSTEM    = UTC
MEAN_ELEMENT_THEORY = SGP/SGP4

EPOCH          = 2026-02-18T00:06:35.533152
MEAN_MOTION    = 14.85502304
ECCENTRICITY   = .0016861
INCLINATION    = 82.5117
RA_OF_ASC_NODE = 213.8735
ARG_OF_PERICENTER = 306.4096
MEAN_ANOMALY   = 53.5565

EPHEMERIS_TYPE = 0
CLASSIFICATION_TYPE = U
NORAD_CAT_ID   = 18749
ELEMENT_SET_NO = 999
REV_AT_EPOCH   = 3910
BSTAR          = .54531411E-4
MEAN_MOTION_DOT = .495E-5
MEAN_MOTION_DDOT = 0

